NORAD_CAT_ID,OBJECT_NAME,OBJECT_TYPE,EPOCH,MEAN_MOTION,ECCENTRICITY,INCLINATION,RA_OF_ASC_NODE,ARG_OF_PERICENTER,MEAN_ANOMALY,BSTAR,MEAN_MOTION_DOT,MEAN_MOTION_DDOT,TLE_LINE0,TLE_LINE1,TLE_LINE2,SEMIMAJOR_AXIS,PERIOD,APOGEE,PERIGEE,DECAYED
55657.0,STARLINK-5328,PAYLOAD,2023-10-23 10:19:31,14.98320607,0.0002544,70.0023,193.8094,285.9808,74.1071,1.2086e-05,5.1e-07,0.0,0 STARLINK-5328,1 55657U 23021AF  23296.43022014  .00000051  00000-0  12086-4 0  9991,2 55657  70.0023 193.8094 0002544 285.9808  74.1071 14.98320607 38923,6950.222,96.108,573.855,570.319,0.0
55657.0,STARLINK-5328,PAYLOAD,2023-10-23 19:56:18,14.98338844,0.0002527,70.0019,192.7998,271.7818,88.3051,-3.6397e-05,-5.27e-06,0.0,0 STARLINK-5328,1 55657U 23021AF  23296.83076756 -.00000527  00000-0 -36397-4 0  9998,2 55657  70.0019 192.7998 0002527 271.7818  88.3051 14.98338844 38987,6950.166,96.106,573.787,570.274,0.0
55657.0,STARLINK-5328,PAYLOAD,2023-10-23 21:32:27,14.98324715,0.0002073,70.0024,192.6316,263.9999,96.0924,-0.00018044,-2.245e-05,0.0,0 STARLINK-5328,1 55657U 23021AF  23296.89753950 -.00002245  00000-0 -18044-3 0  9999,2 55657  70.0024 192.6316 0002073 263.9999  96.0924 14.98324715 39297,6950.209,96.107,573.515,570.633,0.0
55657.0,STARLINK-5328,PAYLOAD,2023-10-24 10:21:29,14.98373782,0.0002675,70.003,191.2845,279.4172,80.6684,-0.00063702,-7.694e-05,0.0,0 STARLINK-5328,1 55657U 23021AF  23297.43159533 -.00007694  00000-0 -63702-3 0  9991,2 55657  70.0030 191.2845 0002675 279.4172  80.6684 14.98373782 39075,6950.058,96.104,573.782,570.063,0.0
55657.0,STARLINK-5328,PAYLOAD,2023-10-25 21:36:28,14.98332709,0.0002518,70.0016,187.5822,266.4337,93.6534,-5.0626e-05,-6.97e-06,0.0,0 STARLINK-5328,1 55657U 23021AF  23298.90032734 -.00000697  00000-0 -50626-4 0  9995,2 55657  70.0016 187.5822 0002518 266.4337  93.6534 14.98332709 39293,6950.185,96.107,573.8,570.299,0.0
55657.0,STARLINK-5328,PAYLOAD,2023-10-26 02:24:52,14.98326082,0.0002514,70.001,187.0762,273.3873,86.6999,0.00010774,1.193e-05,0.0,0 STARLINK-5328,1 55657U 23021AF  23299.10060754  .00001193  00000-0  10774-3 0  9990,2 55657  70.0010 187.0762 0002514 273.3873  86.6999 14.98326082 39624,6950.205,96.107,573.817,570.323,0.0
55657.0,STARLINK-5328,PAYLOAD,2023-10-26 21:38:28,14.98335144,0.0002887,70.0003,185.0569,271.8457,88.2372,1.0915e-05,3.7e-07,0.0,0 STARLINK-5328,1 55657U 23021AF  23299.90172072  .00000037  00000-0  10915-4 0  9999,2 55657  70.0003 185.0569 0002887 271.8457  88.2372 14.98335144 39748,6950.177,96.107,574.048,570.035,0.0
55657.0,STARLINK-5328,PAYLOAD,2023-10-27 02:26:52,14.98348708,0.0003044,70.0003,184.5521,273.564,86.5171,-5.1451e-06,-1.54e-06,0.0,0 STARLINK-5328,1 55657U 23021AF  23300.10199089 -.00000154  00000-0 -51451-5 0  9994,2 55657  70.0003 184.5521 0003044 273.5640  86.5171 14.98348708 39477,6950.135,96.106,574.116,569.884,0.0
55657.0,STARLINK-5328,PAYLOAD,2023-10-27 21:40:30,14.98325136,0.0002783,70.0001,182.5338,280.9087,79.1759,-4.5922e-05,-6.41e-06,0.0,0 STARLINK-5328,1 55657U 23021AF  23300.90312868 -.00000641  00000-0 -45922-4 0  9990,2 55657  70.0001 182.5338 0002783 280.9087  79.1759 14.98325136 39891,6950.208,96.107,574.007,570.139,0.0
55657.0,STARLINK-5328,PAYLOAD,2023-10-28 00:52:46,14.98325962,0.0002959,70.0,182.1961,272.4847,87.5974,-4.9052e-05,-6.78e-06,0.0,0 STARLINK-5328,1 55657U 23021AF  23301.03664710 -.00000678  00000-0 -49052-4 0  9999,2 55657  70.0000 182.1961 0002959 272.4847  87.5974 14.98325962 39612,6950.205,96.107,574.127,570.014,0.0
55657.0,STARLINK-5328,PAYLOAD,2023-10-28 08:53:26,14.9832638,0.0002921,70.0002,181.3543,273.9333,86.1492,-6.4406e-05,-8.61e-06,0.0,0 STARLINK-5328,1 55657U 23021AF  23301.37044816 -.00000861  00000-0 -64406-4 0  9999,2 55657  70.0002 181.3543 0002921 273.9333  86.1492 14.98326380 39969,6950.204,96.107,574.099,570.039,0.0
55657.0,STARLINK-5328,PAYLOAD,2023-10-28 20:06:23,14.98317863,0.0003108,70.0001,180.1761,275.8522,84.2283,0.00014957,1.692e-05,0.0,0 STARLINK-5328,1 55657U 23021AF  23301.83776732  .00001692  00000-0  14957-3 0  9995,2 55657  70.0001 180.1761 0003108 275.8522  84.2283 14.98317863 40039,6950.23,96.108,574.256,569.935,0.0
55657.0,STARLINK-5328,PAYLOAD,2023-10-29 02:30:54,14.9833502,0.0002847,70.0003,179.5017,280.9675,79.1164,2.2864e-05,1.8e-06,0.0,0 STARLINK-5328,1 55657U 23021AF  23302.10480145  .00000180  00000-0  22864-4 0  9994,2 55657  70.0003 179.5017 0002847 280.9675  79.1164 14.98335020 39777,6950.177,96.107,574.021,570.064,0.0
55657.0,STARLINK-5328,PAYLOAD,2023-10-29 08:55:26,14.98336042,0.00027,70.0004,178.8294,274.0476,86.0375,-4.1766e-05,-5.91e-06,0.0,0 STARLINK-5328,1 55657U 23021AF  23302.37184017 -.00000591  00000-0 -41766-4 0  9992,2 55657  70.0004 178.8294 0002700 274.0476  86.0375 14.98336042 40114,6950.174,96.107,573.916,570.163,0.0
55657.0,STARLINK-5328,PAYLOAD,2023-10-29 21:44:31,14.98329322,0.0002858,70.0006,177.4838,271.0275,89.0557,8.8669e-05,9.65e-06,0.0,0 STARLINK-5328,1 55657U 23021AF  23302.90592129  .00000965  00000-0  88669-4 0  9994,2 55657  70.0006 177.4838 0002858 271.0275  89.0557 14.98329322 40199,6950.195,96.107,574.046,570.074,0.0
55657.0,STARLINK-5328,PAYLOAD,2023-10-30 08:57:27,14.98354747,0.0002665,70.001,176.3039,278.1,81.9856,-0.00043761,-5.314e-05,0.0,0 STARLINK-5328,1 55657U 23021AF  23303.37323779 -.00005314  00000-0 -43761-3 0  9997,2 55657  70.0010 176.3039 0002665 278.1000  81.9856 14.98354747 39960,6950.116,96.105,573.834,570.129,0.0
55657.0,STARLINK-5328,PAYLOAD,2023-10-30 21:46:33,14.9832651,0.0002501,70.0007,174.9587,254.1723,105.916,-2.5976e-05,-4.03e-06,0.0,0 STARLINK-5328,1 55657U 23021AF  23303.90732705 -.00000403  00000-0 -25976-4 0  9992,2 55657  70.0007 174.9587 0002501 254.1723 105.9160 14.98326510 40046,6950.204,96.107,573.807,570.33,0.0
55657.0,STARLINK-5328,PAYLOAD,2023-10-31 08:59:29,14.98330211,0.0002982,70.0002,173.7788,269.8911,90.1906,-4.5658e-05,-6.38e-06,0.0,0 STARLINK-5328,1 55657U 23021AF  23304.37464520 -.00000638  00000-0 -45658-4 0  9990,2 55657  70.0002 173.7788 0002982 269.8911  90.1906 14.98330211 40413,6950.192,96.107,574.13,569.985,0.0
55657.0,STARLINK-5328,PAYLOAD,2023-10-31 21:48:33,14.98332141,0.0002853,70.0001,172.4333,266.3596,93.7237,2.6501e-05,2.23e-06,0.0,0 STARLINK-5328,1 55657U 23021AF  23304.90872223  .00000223  00000-0  26501-4 0  9996,2 55657  70.0001 172.4333 0002853 266.3596  93.7237 14.98332141 40197,6950.186,96.107,574.034,570.068,0.0
55657.0,STARLINK-5328,PAYLOAD,2023-11-01 01:00:49,14.98333969,0.0002884,69.9998,172.097,267.0368,93.0461,3.0242e-05,2.68e-06,0.0,0 STARLINK-5328,1 55657U 23021AF  23305.04224064  .00000268  00000-0  30242-4 0  9992,2 55657  69.9998 172.0970 0002884 267.0368  93.0461 14.98333969 40518,6950.181,96.107,574.05,570.041,0.0
55657.0,STARLINK-5328,PAYLOAD,2023-11-01 21:50:34,14.98328755,0.000293,70.0001,169.9094,267.5454,92.5369,5.5184e-05,5.65e-06,0.0,0 STARLINK-5328,1 55657U 23021AF  23305.91012325  .00000565  00000-0  55184-4 0  9995,2 55657  70.0001 169.9094 0002930 267.5454  92.5369 14.98328755 40340,6950.197,96.107,574.098,570.025,0.0
55657.0,STARLINK-5328,PAYLOAD,2023-11-02 01:02:50,14.98329849,0.0002805,69.9997,169.5728,265.9283,94.1555,5.7068e-05,5.88e-06,0.0,0 STARLINK-5328,1 55657U 23021AF  23306.04364250  .00000588  00000-0  57068-4 0  9995,2 55657  69.9997 169.5728 0002805 265.9283  94.1555 14.98329849 40669,6950.193,96.107,574.008,570.109,0.0
55657.0,STARLINK-5328,PAYLOAD,2023-11-02 21:52:35,14.98333767,0.0002917,69.9998,167.3844,268.6743,91.4082,1.3071e-05,6.3e-07,0.0,0 STARLINK-5328,1 55657U 23021AF  23306.91152059  .00000063  00000-0  13071-4 0  9997,2 55657  69.9998 167.3844 0002917 268.6743  91.4082 14.98333767 40793,6950.181,96.107,574.074,570.019,0.0
55657.0,STARLINK-5328,PAYLOAD,2023-11-03 01:04:51,14.98334106,0.0002889,69.9999,167.048,267.8118,92.271,1.5037e-05,8.6e-07,0.0,0 STARLINK-5328,1 55657U 23021AF  23307.04503999  .00000086  00000-0  15037-4 0  9994,2 55657  69.9999 167.0480 0002889 267.8118  92.2710 14.98334106 40517,6950.18,96.107,574.053,570.037,0.0
55657.0,STARLINK-5328,PAYLOAD,2023-11-03 21:54:35,14.98367096,0.0003053,69.9999,164.8598,272.2703,87.8107,-0.00064387,-7.774e-05,0.0,0 STARLINK-5328,1 55657U 23021AF  23307.91291604 -.00007774  00000-0 -64387-3 0  9991,2 55657  69.9999 164.8598 0003053 272.2703  87.8107 14.98367096 40947,6950.078,96.105,574.065,569.821,0.0
55657.0,STARLINK-5328,PAYLOAD,2023-11-04 01:06:52,14.98330997,0.0002818,69.9999,164.5232,269.9684,90.1153,6.0646e-06,-2.1e-07,0.0,0 STARLINK-5328,1 55657U 23021AF  23308.04644163 -.00000021  00000-0  60646-5 0  9991,2 55657  69.9999 164.5232 0002818 269.9684  90.1153 14.98330997 40665,6950.19,96.107,574.013,570.096,0.0
55657.0,STARLINK-5328,PAYLOAD,2023-11-04 07:31:25,14.98327919,0.0002821,69.9998,163.8497,270.5917,89.4919,-2.6341e-05,-4.07e-06,0.0,0 STARLINK-5328,1 55657U 23021AF  23308.31348444 -.00000407  00000-0 -26341-4 0  9996,2 55657  69.9998 163.8497 0002821 270.5917  89.4919 14.98327919 41000,6950.199,96.107,574.025,570.104,0.0
55657.0,STARLINK-5328,PAYLOAD,2023-11-04 21:56:37,14.9832921,0.0002694,69.9999,162.3334,266.8168,93.2683,-8.6729e-06,-1.96e-06,0.0,0 STARLINK-5328,1 55657U 23021AF  23308.91432286 -.00000196  00000-0 -86729-5 0  9992,2 55657  69.9999 162.3334 0002694 266.8168  93.2683 14.98329210 41095,6950.195,96.107,573.933,570.188,0.0
55657.0,STARLINK-5328,PAYLOAD,2023-11-05 01:08:53,14.98330821,0.0002661,70.0,161.9989,266.8947,93.1908,-1.497e-05,-2.72e-06,0.0,0 STARLINK-5328,1 55657U 23021AF  23309.04784227 -.00000272  00000-0 -14970-4 0  9995,2 55657  70.0000 161.9989 0002661 266.8947  93.1908 14.98330821 40819,6950.19,96.107,573.905,570.206,0.0
55657.0,STARLINK-5328,PAYLOAD,2023-11-05 07:33:25,14.98334681,0.0002763,69.9994,161.3255,269.7858,90.2984,2.1317e-05,1.61e-06,0.0,0 STARLINK-5328,1 55657U 23021AF  23309.31487826  .00000161  00000-0  21317-4 0  9998,2 55657  69.9994 161.3255 0002763 269.7858  90.2984 14.98334681 41152,6950.178,96.107,573.964,570.123,0.0
